STARLINK-32724          
1 62441U 24251K   25269.70876685  .00044094  00000+0  14910-2 0  9999
2 62441  53.1611  16.8790 0001739  78.9123 281.2073 15.30222403 42682
STARLINK-32291          
1 62442U 24251L   25269.52126263  .00070667  00000+0  23776-2 0  9995
2 62442  53.1606  17.8375 0001486  79.5065 280.6103 15.30171232 42509
STARLINK-32736          
1 62443U 24251M   25269.52864797  .00019048  00000+0  65415-3 0  9990
2 62443  53.1604  17.8886 0001606  90.6943 269.4242 15.30172628 42653
STARLINK-32737          
1 62444U 24251N   25269.70296419  .00033452  00000+0  11392-2 0  9990
2 62444  53.1617  14.7104 0001425  91.4282 268.6882 15.30124491 42871
STARLINK-32683          
1 62445U 24251P   25270.26505506  .00044745  00000+0  15135-2 0  9990
2 62445  53.1597  14.6535 0001556 113.3832 246.7332 15.30205641 42926
STARLINK-32726          
1 62446U 24251Q   25269.70771276  .00023309  00000+0  79685-3 0  9991
2 62446  53.1619  16.8672 0001322  93.0608 267.0544 15.30191869 42538
STARLINK-32730          
1 62447U 24251R   25269.50438224  .00065624  00000+0  22051-2 0  9993
2 62447  53.1620  17.7288 0001729  94.8104 265.3094 15.30246711 42814
STARLINK-32719          
1 62448U 24251S   25270.28507933  .00048941  00000+0  16523-2 0  9995
2 62448  53.1602  14.6343 0001650 106.5862 253.5321 15.30227059 42757
STARLINK-32723          
1 62449U 24251T   25269.70982152  .00049312  00000+0  16672-2 0  9999
2 62449  53.1611  16.8816 0001379  71.5669 288.5482 15.30176496 42687
STARLINK-32722          
1 62450U 24251U   25269.70454683  .00030702  00000+0  10438-2 0  9991
2 62450  53.1624  16.8449 0001262  87.0322 273.0823 15.30218770 42471
STARLINK-32720          
1 62451U 24251V   25269.66983299  .00027316  00000+0  93114-3 0  9997
2 62451  53.1606  17.3470 0001346  73.3302 286.7847 15.30195654 42462
STARLINK-32656          
1 62452U 24251W   25269.61928613  .00049330  00000+0  16691-2 0  9996
2 62452  53.1607  17.7363 0001072 119.7319 240.3788 15.30152025 42665
STARLINK-32690          
1 62453U 24251X   25269.50543256  .00039161  00000+0  13276-2 0  9998
2 62453  53.1625  17.7366 0001178  69.5219 290.5908 15.30195737 42430
STARLINK-11518 [DTC]    
1 62462U 24254A   25269.94254384  .00234440  00000+0  17748-2 0  9995
2 62462  42.9989 130.3931 0001877 266.3679  93.6974 15.70902906 43650
STARLINK-11455 [DTC]    
1 62463U 24254B   25270.01142778  .00169912  00000+0  12979-2 0  9991
2 62463  42.9990 130.0518 0004050 243.9027 116.1424 15.70886633 43654
STARLINK-11459 [DTC]    
1 62464U 24254C   25270.02724231  .00373654  00000+0  27760-2 0  9997
2 62464  42.9986 129.2847 0001575 299.4061  60.6649 15.70930089 43655
