[{"OBJECT_NAME":"STARLINK-32724","OBJECT_ID":"2024-251K","EPOCH":"2025-09-26T17:00:37.455840","MEAN_MOTION":15.30222403,"ECCENTRICITY":0.00017393,"INCLINATION":53.1611,"RA_OF_ASC_NODE":16.879,"ARG_OF_PERICENTER":78.9123,"MEAN_ANOMALY":281.2073,"EPHEMERIS_TYPE":0,"CLASSIFICATION_TYPE":"U","NORAD_CAT_ID":62441,"ELEMENT_SET_NO":999,"REV_AT_EPOCH":4268,"BSTAR":0.001491033,"MEAN_MOTION_DOT":0.00044094,"MEAN_MOTION_DDOT":0},{"OBJECT_NAME":"STARLINK-32291","OBJECT_ID":"2024-251L","EPOCH":"2025-09-26T12:30:37.091232","MEAN_MOTION":15.30171232,"ECCENTRICITY":0.0001486,"INCLINATION":53.1606,"RA_OF_ASC_NODE":17.8375,"ARG_OF_PERICENTER":79.5065,"MEAN_ANOMALY":280.6103,"EPHEMERIS_TYPE":0,"CLASSIFICATION_TYPE":"U","NORAD_CAT_ID":62442,"ELEMENT_SET_NO":999,"REV_AT_EPOCH":4250,"BSTAR":0.0023776033,"MEAN_MOTION_DOT":0.00070667,"MEAN_MOTION_DDOT":0},{"OBJECT_NAME":"STARLINK-32736","OBJECT_ID":"2024-251M","EPOCH":"2025-09-26T12:41:15.184608","MEAN_MOTION":15.30172628,"ECCENTRICITY":0.00016061,"INCLINATION":53.1604,"RA_OF_ASC_NODE":17.8886,"ARG_OF_PERICENTER":90.6943,"MEAN_ANOMALY":269.4242,"EPHEMERIS_TYPE":0,"CLASSIFICATION_TYPE":"U","NORAD_CAT_ID":62443,"ELEMENT_SET_NO":999,"REV_AT_EPOCH":4265,"BSTAR":0.00065414928,"MEAN_MOTION_DOT":0.00019048,"MEAN_MOTION_DDOT":0},{"OBJECT_NAME":"STARLINK-32737","OBJECT_ID":"2024-251N","EPOCH":"2025-09-26T16:52:16.106016","MEAN_MOTION":15.30124491,"ECCENTRICITY":0.00014256,"INCLINATION":53.1617,"RA_OF_ASC_NODE":14.7104,"ARG_OF_PERICENTER":91.4282,"MEAN_ANOMALY":268.6882,"EPHEMERIS_TYPE":0,"CLASSIFICATION_TYPE":"U","NORAD_CAT_ID":62444,"ELEMENT_SET_NO":999,"REV_AT_EPOCH":4287,"BSTAR":0.0011391501,"MEAN_MOTION_DOT":0.00033452,"MEAN_MOTION_DDOT":0},{"OBJECT_NAME":"STARLINK-32683","OBJECT_ID":"2024-251P","EPOCH":"2025-09-27T06:21:40.757184","MEAN_MOTION":15.30205641,"ECCENTRICITY":0.00015568,"INCLINATION":53.1597,"RA_OF_ASC_NODE":14.6535,"ARG_OF_PERICENTER":113.3832,"MEAN_ANOMALY":246.7332,"EPHEMERIS_TYPE":0,"CLASSIFICATION_TYPE":"U","NORAD_CAT_ID":62445,"ELEMENT_SET_NO":999,"REV_AT_EPOCH":4292,"BSTAR":0.0015134965,"MEAN_MOTION_DOT":0.00044745,"MEAN_MOTION_DDOT":0},{"OBJECT_NAME":"STARLINK-32726","OBJECT_ID":"2024-251Q","EPOCH":"2025-09-26T16:59:06.382464","MEAN_MOTION":15.30191869,"ECCENTRICITY":0.00013229,"INCLINATION":53.1619,"RA_OF_ASC_NODE":16.8672,"ARG_OF_PERICENTER":93.0608,"MEAN_ANOMALY":267.0544,"EPHEMERIS_TYPE":0,"CLASSIFICATION_TYPE":"U","NORAD_CAT_ID":62446,"ELEMENT_SET_NO":999,"REV_AT_EPOCH":4253,"BSTAR":0.000796847,"MEAN_MOTION_DOT":0.00023309,"MEAN_MOTION_DDOT":0},{"OBJECT_NAME":"STARLINK-32730","OBJECT_ID":"2024-251R","EPOCH":"2025-09-26T12:06:18.625536","MEAN_MOTION":15.30246711,"ECCENTRICITY":0.00017296,"INCLINATION":53.162,"RA_OF_ASC_NODE":17.7288,"ARG_OF_PERICENTER":94.8104,"MEAN_ANOMALY":265.3094,"EPHEMERIS_TYPE":0,"CLASSIFICATION_TYPE":"U","NORAD_CAT_ID":62447,"ELEMENT_SET_NO":999,"REV_AT_EPOCH":4281,"BSTAR":0.0022051088,"MEAN_MOTION_DOT":0.00065624,"MEAN_MOTION_DDOT":0},{"OBJECT_NAME":"STARLINK-32719","OBJECT_ID":"2024-251S","EPOCH":"2025-09-27T06:50:30.854112","MEAN_MOTION":15.30227059,"ECCENTRICITY":0.00016501,"INCLINATION":53.1602,"RA_OF_ASC_NODE":14.6343,"ARG_OF_PERICENTER":106.5862,"MEAN_ANOMALY":253.5321,"EPHEMERIS_TYPE":0,"CLASSIFICATION_TYPE":"U","NORAD_CAT_ID":62448,"ELEMENT_SET_NO":999,"REV_AT_EPOCH":4275,"BSTAR":0.0016522738,"MEAN_MOTION_DOT":0.00048941,"MEAN_MOTION_DDOT":0},{"OBJECT_NAME":"STARLINK-32723","OBJECT_ID":"2024-251T","EPOCH":"2025-09-26T17:02:08.579328","MEAN_MOTION":15.30176496,"ECCENTRICITY":0.00013792,"INCLINATION":53.1611,"RA_OF_ASC_NODE":16.8816,"ARG_OF_PERICENTER":71.5669,"MEAN_ANOMALY":288.5482,"EPHEMERIS_TYPE":0,"CLASSIFICATION_TYPE":"U","NORAD_CAT_ID":62449,"ELEMENT_SET_NO":999,"REV_AT_EPOCH":4268,"BSTAR":0.0016672297,"MEAN_MOTION_DOT":0.00049312,"MEAN_MOTION_DDOT":0},{"OBJECT_NAME":"STARLINK-32722","OBJECT_ID":"2024-251U","EPOCH":"2025-09-26T16:54:32.846112","MEAN_MOTION":15.3021877,"ECCENTRICITY":0.00012627,"INCLINATION":53.1624,"RA_OF_ASC_NODE":16.8449,"ARG_OF_PERICENTER":87.0322,"MEAN_ANOMALY":273.0823,"EPHEMERIS_TYPE":0,"CLASSIFICATION_TYPE":"U","NORAD_CAT_ID":62450,"ELEMENT_SET_NO":999,"REV_AT_EPOCH":4247,"BSTAR":0.0010438346,"MEAN_MOTION_DOT":0.00030702,"MEAN_MOTION_DDOT":0},{"OBJECT_NAME":"STARLINK-32720","OBJECT_ID":"2024-251V","EPOCH":"2025-09-26T16:04:33.570336","MEAN_MOTION":15.30195654,"ECCENTRICITY":0.00013466,"INCLINATION":53.1606,"RA_OF_ASC_NODE":17.347,"ARG_OF_PERICENTER":73.3302,"MEAN_ANOMALY":286.7847,"EPHEMERIS_TYPE":0,"CLASSIFICATION_TYPE":"U","NORAD_CAT_ID":62451,"ELEMENT_SET_NO":999,"REV_AT_EPOCH":4246,"BSTAR":0.000931137,"MEAN_MOTION_DOT":0.00027316,"MEAN_MOTION_DDOT":0},{"OBJECT_NAME":"STARLINK-32656","OBJECT_ID":"2024-251W","EPOCH":"2025-09-26T14:51:46.321632","MEAN_MOTION":15.30152025,"ECCENTRICITY":0.0001072,"INCLINATION":53.1607,"RA_OF_ASC_NODE":17.7363,"ARG_OF_PERICENTER":119.7319,"MEAN_ANOMALY":240.3788,"EPHEMERIS_TYPE":0,"CLASSIFICATION_TYPE":"U","NORAD_CAT_ID":62452,"ELEMENT_SET_NO":999,"REV_AT_EPOCH":4266,"BSTAR":0.0016691016,"MEAN_MOTION_DOT":0.0004933,"MEAN_MOTION_DDOT":0},{"OBJECT_NAME":"STARLINK-32690","OBJECT_ID":"2024-251X","EPOCH":"2025-09-26T12:07:49.373184","MEAN_MOTION":15.30195737,"ECCENTRICITY":0.00011783,"INCLINATION":53.1625,"RA_OF_ASC_NODE":17.7366,"ARG_OF_PERICENTER":69.5219,"MEAN_ANOMALY":290.5908,"EPHEMERIS_TYPE":0,"CLASSIFICATION_TYPE":"U","NORAD_CAT_ID":62453,"ELEMENT_SET_NO":999,"REV_AT_EPOCH":4243,"BSTAR":0.0013275543,"MEAN_MOTION_DOT":0.00039161,"MEAN_MOTION_DDOT":0},{"OBJECT_NAME":"STARLINK-11518 [DTC]","OBJECT_ID":"2024-254A","EPOCH":"2025-09-26T22:37:15.787776","MEAN_MOTION":15.70902906,"ECCENTRICITY":0.00018771,"INCLINATION":42.9989,"RA_OF_ASC_NODE":130.3931,"ARG_OF_PERICENTER":266.3679,"MEAN_ANOMALY":93.6974,"EPHEMERIS_TYPE":0,"CLASSIFICATION_TYPE":"U","NORAD_CAT_ID":62462,"ELEMENT_SET_NO":999,"REV_AT_EPOCH":4365,"BSTAR":0.0017747785,"MEAN_MOTION_DOT":0.0023444,"MEAN_MOTION_DDOT":0},{"OBJECT_NAME":"STARLINK-11455 [DTC]","OBJECT_ID":"2024-254B","EPOCH":"2025-09-27T00:16:27.360192","MEAN_MOTION":15.70886633,"ECCENTRICITY":0.00040504,"INCLINATION":42.999,"RA_OF_ASC_NODE":130.0518,"ARG_OF_PERICENTER":243.9027,"MEAN_ANOMALY":116.1424,"EPHEMERIS_TYPE":0,"CLASSIFICATION_TYPE":"U","NORAD_CAT_ID":62463,"ELEMENT_SET_NO":999,"REV_AT_EPOCH":4365,"BSTAR":0.0012978796,"MEAN_MOTION_DOT":0.00169912,"MEAN_MOTION_DDOT":0},{"OBJECT_NAME":"STARLINK-11459 [DTC]","OBJECT_ID":"2024-254C","EPOCH":"2025-09-27T00:39:13.735584","MEAN_MOTION":15.70930089,"ECCENTRICITY":0.00015755,"INCLINATION":42.9986,"RA_OF_ASC_NODE":129.2847,"ARG_OF_PERICENTER":299.4061,"MEAN_ANOMALY":60.6649,"EPHEMERIS_TYPE":0,"CLASSIFICATION_TYPE":"U","NORAD_CAT_ID":62464,"ELEMENT_SET_NO":999,"REV_AT_EPOCH":4365,"BSTAR":0.0027760215,"MEAN_MOTION_DOT":0.00373654,"MEAN_MOTION_DDOT":0}]
